ANDESITE                
1 45726U 20037D   26068.46720933  .00004478  00000+0  31876-3 0  9992
2 45726  97.7890 260.5174 0009953 141.6473 218.5462 15.05115692310662
STARLINK-5732           
1 55572U 23020D   26068.20712219 -.00001166  00000+0 -71305-4 0  9992
2 55572  43.0025   7.5285 0000981 258.2530 101.8203 15.02530703168848
